LYNK TOWER 6            
1 59123U 24043AB  26068.89488777  .00011440  00000+0  40142-3 0  9996
2 59123  97.5426 204.1954 0009749 232.0253 128.0107 15.29548678111845
STARLINK-34882          
1 66227U 25244X   26068.71011881  .00027715  00000+0  94451-3 0  9996
2 66227  53.1598 229.7417 0001210  56.6324 303.4792 15.30195652 21668
